[
    {
        "Altitude(m)": 617710.6929695669,
        "Argument of Periapsis(deg)": 0.0,
        "Eccentricity": 0.0,
        "Inclination(deg)": 60.0,
        "Latitude(deg)": -41.1028044590194,
        "Longitude(deg)": -130.03340615194094,
        "Mean Anomaly(deg)": 310.9091000000001,
        "RAAN(deg)": 0.0,
        "Satellite Name": "Test1 19",
        "Satellite Number": 19,
        "Semi-Major Axis(m)": 6980739.136638005,
        "Time(s)": 0
    },
    {
        "Altitude(m)": 617517.991466962,
        "Argument of Periapsis(deg)": 0.00010418945913296404,
        "Eccentricity": 0.0,
        "Inclination(deg)": 60.0,
        "Latitude(deg)": -40.637011784301095,
        "Longitude(deg)": -129.53661088767998,
        "Mean Anomaly(deg)": 311.5292061454619,
        "RAAN(deg)": -0.0004200491397426661,
        "Satellite Name": "Test1 19",
        "Satellite Number": 19,
        "Semi-Major Axis(m)": 6980739.136638005,
        "Time(s)": 10
    }
]